[Satellite]
VERSION=1.1
NAME=IRIDIUM 911 [-]
NICKNAME=IRIDIUM 911 [-]
TLE1=1 24842U 97030G   15055.37262959  .00000518  00000-0  14378-3 0  9998
TLE2=2 24842  86.4512 344.5922 0014823  21.4292  97.2893 14.44569379931110
